{
  "type": "FeatureCollection",
  "features": [
    {
      "type": "Feature",
      "properties": {
        "norad_id": 31952,
        "name": "FENGYUN 1C DEB",
        "group": "fengyun-1c-debris",
        "lat": 57.83898381560323,
        "lon": 96.75481357549116,
        "alt_km": 776.7029465593296,
        "timestamp": "2025-12-19T16:54:44.546645+00:00",
        "meta_object_name": "FENGYUN 1C DEB",
        "meta_object_id": "1999-025CND",
        "meta_epoch": "2025-12-18T14:12:19.368576",
        "meta_mean_motion": 14.53519617,
        "meta_eccentricity": 0.01140991,
        "meta_inclination": 98.9557,
        "meta_ra_of_asc_node": 110.0904,
        "meta_arg_of_pericenter": 274.7014,
        "meta_mean_anomaly": 84.1157,
        "meta_ephemeris_type": 0,
        "meta_classification_type": "U",
        "meta_norad_cat_id": 31952,
        "meta_element_set_no": 999,
        "meta_rev_at_epoch": 97294,
        "meta_bstar": 0.00039311393,
        "meta_mean_motion_dot": 1.729e-05,
        "meta_mean_motion_ddot": 0,
        "tle_line1": "1 31952U 99025CND 25352.59189084  .00001729  00000+0  39311-3 0  9994",
        "tle_line2": "2 31952  98.9557 110.0904 0114099 274.7014  84.1157 14.53519617972948"
      },
      "geometry": {
        "type": "Point",
        "coordinates": [
          96.75481357549116,
          57.83898381560323
        ]
      }
    },
    {
      "type": "Feature",
      "properties": {
        "norad_id": 31955,
        "name": "FENGYUN 1C DEB",
        "group": "fengyun-1c-debris",
        "lat": 1.119999674491093,
        "lon": -128.79448068818505,
        "alt_km": 711.5528244603875,
        "timestamp": "2025-12-19T16:54:44.546655+00:00",
        "meta_object_name": "FENGYUN 1C DEB",
        "meta_object_id": "1999-025CNG",
        "meta_epoch": "2025-12-18T11:56:12.080256",
        "meta_mean_motion": 14.63986732,
        "meta_eccentricity": 0.00434448,
        "meta_inclination": 99.2812,
        "meta_ra_of_asc_node": 230.03,
        "meta_arg_of_pericenter": 163.1986,
        "meta_mean_anomaly": 318.8693,
        "meta_ephemeris_type": 0,
        "meta_classification_type": "U",
        "meta_norad_cat_id": 31955,
        "meta_element_set_no": 999,
        "meta_rev_at_epoch": 96641,
        "meta_bstar": 0.0013577477,
        "meta_mean_motion_dot": 7.157e-05,
        "meta_mean_motion_ddot": 0,
        "tle_line1": "1 31955U 99025CNG 25352.49736204  .00007157  00000+0  13577-2 0  9994",
        "tle_line2": "2 31955  99.2812 230.0300 0043444 163.1986 318.8693 14.63986732966410"
      },
      "geometry": {
        "type": "Point",
        "coordinates": [
          -128.79448068818505,
          1.119999674491093
        ]
      }
    },
    {
      "type": "Feature",
      "properties": {
        "norad_id": 31959,
        "name": "FENGYUN 1C DEB",
        "group": "fengyun-1c-debris",
        "lat": -19.793471095860728,
        "lon": -132.16534202129037,
        "alt_km": 758.2778436570079,
        "timestamp": "2025-12-19T16:54:44.546665+00:00",
        "meta_object_name": "FENGYUN 1C DEB",
        "meta_object_id": "1999-025CNL",
        "meta_epoch": "2025-12-18T09:28:12.506016",
        "meta_mean_motion": 14.46847866,
        "meta_eccentricity": 0.00271233,
        "meta_inclination": 98.5114,
        "meta_ra_of_asc_node": 223.4289,
        "meta_arg_of_pericenter": 137.4533,
        "meta_mean_anomaly": 222.8767,
        "meta_ephemeris_type": 0,
        "meta_classification_type": "U",
        "meta_norad_cat_id": 31959,
        "meta_element_set_no": 999,
        "meta_rev_at_epoch": 64435,
        "meta_bstar": 0.0021054195,
        "meta_mean_motion_dot": 7.63e-05,
        "meta_mean_motion_ddot": 0,
        "tle_line1": "1 31959U 99025CNL 25352.39458919  .00007630  00000+0  21054-2 0  9996",
        "tle_line2": "2 31959  98.5114 223.4289 0027123 137.4533 222.8767 14.46847866644358"
      },
      "geometry": {
        "type": "Point",
        "coordinates": [
          -132.16534202129037,
          -19.793471095860728
        ]
      }
    },
    {
      "type": "Feature",
      "properties": {
        "norad_id": 31964,
        "name": "FENGYUN 1C DEB",
        "group": "fengyun-1c-debris",
        "lat": 54.772362695685246,
        "lon": 105.13830737488358,
        "alt_km": 678.7173102438765,
        "timestamp": "2025-12-19T16:54:44.546677+00:00",
        "meta_object_name": "FENGYUN 1C DEB",
        "meta_object_id": "1999-025CNR",
        "meta_epoch": "2025-12-18T07:43:56.657856",
        "meta_mean_motion": 14.58617923,
        "meta_eccentricity": 0.00284532,
        "meta_inclination": 98.701,
        "meta_ra_of_asc_node": 116.2166,
        "meta_arg_of_pericenter": 12.48,
        "meta_mean_anomaly": 347.7096,
        "meta_ephemeris_type": 0,
        "meta_classification_type": "U",
        "meta_norad_cat_id": 31964,
        "meta_element_set_no": 999,
        "meta_rev_at_epoch": 67591,
        "meta_bstar": 0.002099061,
        "meta_mean_motion_dot": 9.789e-05,
        "meta_mean_motion_ddot": 0,
        "tle_line1": "1 31964U 99025CNR 25352.32218354  .00009789  00000+0  20991-2 0  9998",
        "tle_line2": "2 31964  98.7010 116.2166 0028453  12.4800 347.7096 14.58617923675910"
      },
      "geometry": {
        "type": "Point",
        "coordinates": [
          105.13830737488358,
          54.772362695685246
        ]
      }
    },
    {
      "type": "Feature",
      "properties": {
        "norad_id": 31966,
        "name": "FENGYUN 1C DEB",
        "group": "fengyun-1c-debris",
        "lat": -76.44303060705667,
        "lon": -74.18913336735694,
        "alt_km": 615.6713727632077,
        "timestamp": "2025-12-19T16:54:44.546688+00:00",
        "meta_object_name": "FENGYUN 1C DEB",
        "meta_object_id": "1999-025CNT",
        "meta_epoch": "2025-12-17T16:16:36.229440",
        "meta_mean_motion": 14.67608917,
        "meta_eccentricity": 0.00860626,
        "meta_inclination": 99.0168,
        "meta_ra_of_asc_node": 144.7692,
        "meta_arg_of_pericenter": 259.558,
        "meta_mean_anomaly": 99.5915,
        "meta_ephemeris_type": 0,
        "meta_classification_type": "U",
        "meta_norad_cat_id": 31966,
        "meta_element_set_no": 999,
        "meta_rev_at_epoch": 65815,
        "meta_bstar": 0.00097782507,
        "meta_mean_motion_dot": 5.813e-05,
        "meta_mean_motion_ddot": 0,
        "tle_line1": "1 31966U 99025CNT 25351.67819710  .00005813  00000+0  97783-3 0  9998",
        "tle_line2": "2 31966  99.0168 144.7692 0086062 259.5580  99.5915 14.67608917658151"
      },
      "geometry": {
        "type": "Point",
        "coordinates": [
          -74.18913336735694,
          -76.44303060705667
        ]
      }
    },
    {
      "type": "Feature",
      "properties": {
        "norad_id": 31972,
        "name": "FENGYUN 1C DEB",
        "group": "fengyun-1c-debris",
        "lat": -54.658402183576776,
        "lon": -157.74012696542962,
        "alt_km": 915.2305807289404,
        "timestamp": "2025-12-19T16:54:44.546700+00:00",
        "meta_object_name": "FENGYUN 1C DEB",
        "meta_object_id": "1999-025CNZ",
        "meta_epoch": "2025-12-19T02:24:59.271264",
        "meta_mean_motion": 14.07516836,
        "meta_eccentricity": 0.00766676,
        "meta_inclination": 99.2108,
        "meta_ra_of_asc_node": 34.8717,
        "meta_arg_of_pericenter": 14.2537,
        "meta_mean_anomaly": 43.2001,
        "meta_ephemeris_type": 0,
        "meta_classification_type": "U",
        "meta_norad_cat_id": 31972,
        "meta_element_set_no": 999,
        "meta_rev_at_epoch": 95050,
        "meta_bstar": 9.1414971e-05,
        "meta_mean_motion_dot": 1.12e-06,
        "meta_mean_motion_ddot": 0,
        "tle_line1": "1 31972U 99025CNZ 25353.10068601  .00000112  00000+0  91415-4 0  9994",
        "tle_line2": "2 31972  99.2108  34.8717 0076667  14.2537  43.2001 14.07516836950507"
      },
      "geometry": {
        "type": "Point",
        "coordinates": [
          -157.74012696542962,
          -54.658402183576776
        ]
      }
    },
    {
      "type": "Feature",
      "properties": {
        "norad_id": 31974,
        "name": "FENGYUN 1C DEB",
        "group": "fengyun-1c-debris",
        "lat": 2.74599844181357,
        "lon": -175.0274428572495,
        "alt_km": 808.4964460142719,
        "timestamp": "2025-12-19T16:54:44.546710+00:00",
        "meta_object_name": "FENGYUN 1C DEB",
        "meta_object_id": "1999-025CPB",
        "meta_epoch": "2025-12-18T11:31:23.860128",
        "meta_mean_motion": 14.29591099,
        "meta_eccentricity": 0.00713874,
        "meta_inclination": 98.3789,
        "meta_ra_of_asc_node": 3.3895,
        "meta_arg_of_pericenter": 285.6778,
        "meta_mean_anomaly": 73.6537,
        "meta_ephemeris_type": 0,
        "meta_classification_type": "U",
        "meta_norad_cat_id": 31974,
        "meta_element_set_no": 999,
        "meta_rev_at_epoch": 69504,
        "meta_bstar": 0.0020701647,
        "meta_mean_motion_dot": 5.407e-05,
        "meta_mean_motion_ddot": 0,
        "tle_line1": "1 31974U 99025CPB 25352.48013727  .00005407  00000+0  20702-2 0  9996",
        "tle_line2": "2 31974  98.3789   3.3895 0071387 285.6778  73.6537 14.29591099695041"
      },
      "geometry": {
        "type": "Point",
        "coordinates": [
          -175.0274428572495,
          2.74599844181357
        ]
      }
    }
  ]
}